CTC1_L_00008016-03
1 10062U 25696ZX  26075.70028935  .00000000  00000+0  00000-0 0  9990
2 10062  75.0000 180.0000 0000000   0.0000   0.0000 15.90815360    11
CTC1_L_00008016-04
1 10063U 22745FD  26075.70028935  .00000000  00000+0  00000-0 0  9993
2 10063  75.0000 180.0000 0000000   0.0000  90.0000 15.90815360    11
CTC1_L_00008017-01
1 10064U 22243SQ  26075.70028935  .00000000  00000+0  00000-0 0  9997
2 10064  75.0000 192.0000 0000000   0.0000 192.0000 15.90815360    18
CTC1_L_00008017-02
1 10065U 26380BI  26075.70028935  .00000000  00000+0  00000-0 0  9994
2 10065  75.0000 192.0000 0000000   0.0000 282.0000 15.90815360    19
CTC1_L_00008017-03
1 10066U 22927WI  26075.70028935  .00000000  00000+0  00000-0 0  9998
2 10066  75.0000 192.0000 0000000   0.0000  12.0000 15.90815360    11
CTC1_L_00008017-04
1 10067U 25967TS  26075.70028935  .00000000  00000+0  00000-0 0  9996
2 10067  75.0000 192.0000 0000000   0.0000 102.0000 15.90815360    12
CTC1_L_00008018-01
1 10068U 26954EU  26075.70028935  .00000000  00000+0  00000-0 0  9994
2 10068  75.0000 204.0000 0000000   0.0000 204.0000 15.90815360    10
CTC1_L_00008018-02
1 10069U 25892ZY  26075.70028935  .00000000  00000+0  00000-0 0  9995
2 10069  75.0000 204.0000 0000000   0.0000 294.0000 15.90815360    10
CTC1_L_00008018-03
1 10070U 22443UZ  26075.70028935  .00000000  00000+0  00000-0 0  9996
2 10070  75.0000 204.0000 0000000   0.0000  24.0000 15.90815360    13
CTC1_L_00008018-04
1 10071U 24478IV  26075.70028935  .00000000  00000+0  00000-0 0  9997
2 10071  75.0000 204.0000 0000000   0.0000 114.0000 15.90815360    14
CTC1_L_00008019-01
1 10072U 23747TO  26075.70028935  .00000000  00000+0  00000-0 0  9996
2 10072  75.0000 216.0000 0000000   0.0000 216.0000 15.90815360    11
CTC1_L_00008019-02
1 10073U 24408LU  26075.70028935  .00000000  00000+0  00000-0 0  9992
2 10073  75.0000 216.0000 0000000   0.0000 306.0000 15.90815360    12
CTC1_L_00008019-03
1 10074U 25811NG  26075.70028935  .00000000  00000+0  00000-0 0  9992
2 10074  75.0000 216.0000 0000000   0.0000  36.0000 15.90815360    13
CTC1_L_00008019-04
1 10075U 26591VL  26075.70028935  .00000000  00000+0  00000-0 0  9999
2 10075  75.0000 216.0000 0000000   0.0000 126.0000 15.90815360    14
CTC1_L_00008020-01
1 10076U 25454BV  26075.70028935  .00000000  00000+0  00000-0 0  9997
2 10076  75.0000 228.0000 0000000   0.0000 228.0000 15.90815360    11
CTC1_L_00008020-02
1 10077U 26798EQ  26075.70028935  .00000000  00000+0  00000-0 0  9990
2 10077  75.0000 228.0000 0000000   0.0000 318.0000 15.90815360    12
CTC1_L_00008020-03
1 10078U 23487OV  26075.70028935  .00000000  00000+0  00000-0 0  9993
2 10078  75.0000 228.0000 0000000   0.0000  48.0000 15.90815360    13
CTC1_L_00008020-04
1 10079U 22880DT  26075.70028935  .00000000  00000+0  00000-0 0  9990
2 10079  75.0000 228.0000 0000000   0.0000 138.0000 15.90815360    14
CTC1_L_00008021-01
1 10080U 26450GB  26075.70028935  .00000000  00000+0  00000-0 0  9999
2 10080  75.0000 240.0000 0000000   0.0000 240.0000 15.90815360    14
CTC1_L_00008021-02
1 10081U 25424LU  26075.70028935  .00000000  00000+0  00000-0 0  9990
2 10081  75.0000 240.0000 0000000   0.0000 330.0000 15.90815360    15
CTC1_L_00008021-03
1 10082U 26502YP  26075.70028935  .00000000  00000+0  00000-0 0  9999
2 10082  75.0000 240.0000 0000000   0.0000  60.0000 15.90815360    16
CTC1_L_00008021-04
1 10083U 23351NZ  26075.70028935  .00000000  00000+0  00000-0 0  9999
2 10083  75.0000 240.0000 0000000   0.0000 150.0000 15.90815360    17
CTC1_L_00008022-01
1 10084U 25732VJ  26075.70028935  .00000000  00000+0  00000-0 0  9995
2 10084  75.0000 252.0000 0000000   0.0000 252.0000 15.90815360    14
CTC1_L_00008022-02
1 10085U 25813LL  26075.70028935  .00000000  00000+0  00000-0 0  9996
2 10085  75.0000 252.0000 0000000   0.0000 342.0000 15.90815360    15
CTC1_L_00008022-03
1 10086U 22858LM  26075.70028935  .00000000  00000+0  00000-0 0  9993
2 10086  75.0000 252.0000 0000000   0.0000  72.0000 15.90815360    16
CTC1_L_00008022-04
1 10087U 23024WB  26075.70028935  .00000000  00000+0  00000-0 0  9990
2 10087  75.0000 252.0000 0000000   0.0000 162.0000 15.90815360    17
CTC1_L_00008023-01
1 10088U 24931YR  26075.70028935  .00000000  00000+0  00000-0 0  9999
2 10088  75.0000 264.0000 0000000   0.0000 264.0000 15.90815360    14
CTC1_L_00008023-02
1 10089U 25044TK  26075.70028935  .00000000  00000+0  00000-0 0  9996
2 10089  75.0000 264.0000 0000000   0.0000 354.0000 15.90815360    15
CTC1_L_00008023-03
1 10090U 24211NW  26075.70028935  .00000000  00000+0  00000-0 0  9993
2 10090  75.0000 264.0000 0000000   0.0000  84.0000 15.90815360    17
CTC1_L_00008023-04
1 10091U 25328QO  26075.70028935  .00000000  00000+0  00000-0 0  9994
2 10091  75.0000 264.0000 0000000   0.0000 174.0000 15.90815360    18
CTC1_L_00008024-01
1 10092U 22793IO  26075.70028935  .00000000  00000+0  00000-0 0  9998
2 10092  75.0000 276.0000 0000000   0.0000 276.0000 15.90815360    15
CTC1_L_00008024-02
1 10093U 26530EO  26075.70028935  .00000000  00000+0  00000-0 0  9992
2 10093  75.0000 276.0000 0000000   0.0000   6.0000 15.90815360    17
CTC1_L_00008024-03
1 10094U 23358HO  26075.70028935  .00000000  00000+0  00000-0 0  9998
2 10094  75.0000 276.0000 0000000   0.0000  96.0000 15.90815360    17
CTC1_L_00008024-04
1 10095U 22634L   26075.70028935  .00000000  00000+0  00000-0 0  9995
2 10095  75.0000 276.0000 0000000   0.0000 186.0000 15.90815360    18
CTC1_L_00008025-01
1 10096U 24471QC  26075.70028935  .00000000  00000+0  00000-0 0  9997
2 10096  75.0000 288.0000 0000000   0.0000 288.0000 15.90815360    15
CTC1_L_00008025-02
1 10097U 25329MA  26075.70028935  .00000000  00000+0  00000-0 0  9991
2 10097  75.0000 288.0000 0000000   0.0000  18.0000 15.90815360    17
CTC1_L_00008025-03
1 10098U 26688ZC  26075.70028935  .00000000  00000+0  00000-0 0  9991
2 10098  75.0000 288.0000 0000000   0.0000 108.0000 15.90815360    18
CTC1_L_00008025-04
1 10099U 22004YX  26075.70028935  .00000000  00000+0  00000-0 0  9990
2 10099  75.0000 288.0000 0000000   0.0000 198.0000 15.90815360    18
CTC1_L_00008026-01
1 10100U 25442IT  26075.70028935  .00000000  00000+0  00000-0 0  9992
2 10100  75.0000 300.0000 0000000   0.0000 300.0000 15.90815360    11
CTC1_L_00008026-02
1 10101U 22079JW  26075.70028935  .00000000  00000+0  00000-0 0  9996
2 10101  75.0000 300.0000 0000000   0.0000  30.0000 15.90815360    12
CTC1_L_00008026-03
1 10102U 25897XX  26075.70028935  .00000000  00000+0  00000-0 0  9998
2 10102  75.0000 300.0000 0000000   0.0000 120.0000 15.90815360    13
CTC1_L_00008026-04
1 10103U 24540XS  26075.70028935  .00000000  00000+0  00000-0 0  9993
2 10103  75.0000 300.0000 0000000   0.0000 210.0000 15.90815360    14
CTC1_L_00008027-01
1 10104U 25018DB  26075.70028935  .00000000  00000+0  00000-0 0  9995
2 10104  75.0000 312.0000 0000000   0.0000 312.0000 15.90815360    11
CTC1_L_00008027-02
1 10105U 23800GP  26075.70028935  .00000000  00000+0  00000-0 0  9993
2 10105  75.0000 312.0000 0000000   0.0000  42.0000 15.90815360    12
CTC1_L_00008027-03
1 10106U 24401PS  26075.70028935  .00000000  00000+0  00000-0 0  9992
2 10106  75.0000 312.0000 0000000   0.0000 132.0000 15.90815360    13
CTC1_L_00008027-04
1 10107U 22439DE  26075.70028935  .00000000  00000+0  00000-0 0  9992
2 10107  75.0000 312.0000 0000000   0.0000 222.0000 15.90815360    14
CTC1_L_00008028-01
1 10108U 23440FZ  26075.70028935  .00000000  00000+0  00000-0 0  9996
2 10108  75.0000 324.0000 0000000   0.0000 324.0000 15.90815360    11
CTC1_L_00008028-02
1 10109U 22612UD  26075.70028935  .00000000  00000+0  00000-0 0  9997
2 10109  75.0000 324.0000 0000000   0.0000  54.0000 15.90815360    12
CTC1_L_00008028-03
1 10110U 22313UA  26075.70028935  .00000000  00000+0  00000-0 0  9997
2 10110  75.0000 324.0000 0000000   0.0000 144.0000 15.90815360    14
CTC1_L_00008028-04
1 10111U 22656SC  26075.70028935  .00000000  00000+0  00000-0 0  9998
2 10111  75.0000 324.0000 0000000   0.0000 234.0000 15.90815360    15
CTC1_L_00008029-01
1 10112U 23906AC  26075.70028935  .00000000  00000+0  00000-0 0  9998
2 10112  75.0000 336.0000 0000000   0.0000 336.0000 15.90815360    12
CTC1_L_00008029-02
1 10113U 23373RQ  26075.70028935  .00000000  00000+0  00000-0 0  9997
2 10113  75.0000 336.0000 0000000   0.0000  66.0000 15.90815360    13
CTC1_L_00008029-03
1 10114U 24904HH  26075.70028935  .00000000  00000+0  00000-0 0  9999
2 10114  75.0000 336.0000 0000000   0.0000 156.0000 15.90815360    14
CTC1_L_00008029-04
1 10115U 25543KU  26075.70028935  .00000000  00000+0  00000-0 0  9990
2 10115  75.0000 336.0000 0000000   0.0000 246.0000 15.90815360    15
CTC1_L_00008030-01
1 10116U 24046FD  26075.70028935  .00000000  00000+0  00000-0 0  9998
2 10116  75.0000 348.0000 0000000   0.0000 348.0000 15.90815360    12
CTC1_L_00008030-02
1 10117U 23715VX  26075.70028935  .00000000  00000+0  00000-0 0  9991
2 10117  75.0000 348.0000 0000000   0.0000  78.0000 15.90815360    13
CTC1_L_00008030-03
1 10118U 23030YT  26075.70028935  .00000000  00000+0  00000-0 0  9992
2 10118  75.0000 348.0000 0000000   0.0000 168.0000 15.90815360    14
CTC1_L_00008030-04
1 10119U 23326NQ  26075.70028935  .00000000  00000+0  00000-0 0  9991
2 10119  75.0000 348.0000 0000000   0.0000 258.0000 15.90815360    15
